CCSDS_OMM_VERS = 2.0
CREATION_DATE  = 
ORIGINATOR     = 

OBJECT_NAME    = SL-3 R/B
OBJECT_ID      = 1982-079B
CENTER_NAME    = EARTH
REF_FRAME      = TEME
TIME_SYSTEM    = UTC
MEAN_ELEMENT_THEORY = SGP/SGP4

EPOCH          = 2026-03-03T21:24:16.259040
MEAN_MOTION    = 15.24693344
ECCENTRICITY   = .00248208
INCLINATION    = 81.1474
RA_OF_ASC_NODE = 199.9215
ARG_OF_PERICENTER = 184.3878
MEAN_ANOMALY   = 175.7142

EPHEMERIS_TYPE = 0
CLASSIFICATION_TYPE = U
NORAD_CAT_ID   = 13403
ELEMENT_SET_NO = 999
REV_AT_EPOCH   = 37681
BSTAR          = .36920115E-3
MEAN_MOTION_DOT = .9235E-4
MEAN_MOTION_DDOT = 0

CCSDS_OMM_VERS = 2.0
CREATION_DATE  = 
ORIGINATOR     = 

OBJECT_NAME    = SL-14 R/B
OBJECT_ID      = 1982-092B
CENTER_NAME    = EARTH
REF_FRAME      = TEME
TIME_SYSTEM    = UTC
MEAN_ELEMENT_THEORY = SGP/SGP4

EPOCH          = 2026-03-03T17:32:33.529632
MEAN_MOTION    = 14.86659408
ECCENTRICITY   = .00193824
INCLINATION    = 82.5703
RA_OF_ASC_NODE = 146.9721
ARG_OF_PERICENTER = 324.5302
MEAN_ANOMALY   = 152.1074

EPHEMERIS_TYPE = 0
CLASSIFICATION_TYPE = U
NORAD_CAT_ID   = 13553
ELEMENT_SET_NO = 999
REV_AT_EPOCH   = 32804
BSTAR          = .70824038E-4
MEAN_MOTION_DOT = .655E-5
MEAN_MOTION_DDOT = 0

CCSDS_OMM_VERS = 2.0
CREATION_DATE  = 
ORIGINATOR     = 

OBJECT_NAME    = SL-3 R/B
OBJECT_ID      = 1983-010B
CENTER_NAME    = EARTH
REF_FRAME      = TEME
TIME_SYSTEM    = UTC
MEAN_ELEMENT_THEORY = SGP/SGP4

EPOCH          = 2026-03-03T06:56:56.264640
MEAN_MOTION    = 15.46076306
ECCENTRICITY   = .00184672
INCLINATION    = 81.1059
RA_OF_ASC_NODE = 10.0905
ARG_OF_PERICENTER = 71.2910
MEAN_ANOMALY   = 289.0337

EPHEMERIS_TYPE = 0
CLASSIFICATION_TYPE = U
NORAD_CAT_ID   = 13819
ELEMENT_SET_NO = 999
REV_AT_EPOCH   = 35695
BSTAR          = .39033017E-3
MEAN_MOTION_DOT = .19262E-3
MEAN_MOTION_DDOT = 0

CCSDS_OMM_VERS = 2.0
CREATION_DATE  = 
ORIGINATOR     = 

OBJECT_NAME    = SL-3 R/B
OBJECT_ID      = 1983-075B
CENTER_NAME    = EARTH
REF_FRAME      = TEME
TIME_SYSTEM    = UTC
MEAN_ELEMENT_THEORY = SGP/SGP4

EPOCH          = 2026-03-03T23:06:36.689760
MEAN_MOTION    = 15.38249840
ECCENTRICITY   = .00197343
INCLINATION    = 97.6133
RA_OF_ASC_NODE = 67.3238
ARG_OF_PERICENTER = 248.3145
MEAN_ANOMALY   = 111.5998

EPHEMERIS_TYPE = 0
CLASSIFICATION_TYPE = U
NORAD_CAT_ID   = 14208
ELEMENT_SET_NO = 999
REV_AT_EPOCH   = 32927
BSTAR          = .41623516E-3
MEAN_MOTION_DOT = .15714E-3
MEAN_MOTION_DDOT = 0

CCSDS_OMM_VERS = 2.0
CREATION_DATE  = 
ORIGINATOR     = 

OBJECT_NAME    = COSMOS 1536
OBJECT_ID      = 1984-013A
CENTER_NAME    = EARTH
REF_FRAME      = TEME
TIME_SYSTEM    = UTC
MEAN_ELEMENT_THEORY = SGP/SGP4

EPOCH          = 2026-03-03T14:42:22.796640
MEAN_MOTION    = 15.23730274
ECCENTRICITY   = .001282
INCLINATION    = 82.5438
RA_OF_ASC_NODE = 113.8915
ARG_OF_PERICENTER = 307.3578
MEAN_ANOMALY   = 52.6491

EPHEMERIS_TYPE = 0
CLASSIFICATION_TYPE = U
NORAD_CAT_ID   = 14699
ELEMENT_SET_NO = 999
REV_AT_EPOCH   = 27169
BSTAR          = .34723E-3
MEAN_MOTION_DOT = .8392E-4
MEAN_MOTION_DDOT = 0

CCSDS_OMM_VERS = 2.0
CREATION_DATE  = 
ORIGINATOR     = 

OBJECT_NAME    = SL-14 R/B
OBJECT_ID      = 1984-027B
CENTER_NAME    = EARTH
REF_FRAME      = TEME
TIME_SYSTEM    = UTC
MEAN_ELEMENT_THEORY = SGP/SGP4

EPOCH          = 2026-03-03T13:34:13.162368
MEAN_MOTION    = 14.85968921
ECCENTRICITY   = .0017893
INCLINATION    = 82.5381
RA_OF_ASC_NODE = 250.7582
ARG_OF_PERICENTER = 358.7280
MEAN_ANOMALY   = 1.3888

EPHEMERIS_TYPE = 0
CLASSIFICATION_TYPE = U
NORAD_CAT_ID   = 14820
ELEMENT_SET_NO = 999
REV_AT_EPOCH   = 24672
BSTAR          = .69372E-4
MEAN_MOTION_DOT = .631E-5
MEAN_MOTION_DDOT = 0

CCSDS_OMM_VERS = 2.0
CREATION_DATE  = 
ORIGINATOR     = 

OBJECT_NAME    = SL-8 R/B
OBJECT_ID      = 1985-006B
CENTER_NAME    = EARTH
REF_FRAME      = TEME
TIME_SYSTEM    = UTC
MEAN_ELEMENT_THEORY = SGP/SGP4

EPOCH          = 2026-03-03T17:55:48.214848
MEAN_MOTION    = 14.37778344
ECCENTRICITY   = .00186936
INCLINATION    = 74.0434
RA_OF_ASC_NODE = 272.0844
ARG_OF_PERICENTER = 191.2425
MEAN_ANOMALY   = 247.4254

EPHEMERIS_TYPE = 0
CLASSIFICATION_TYPE = U
NORAD_CAT_ID   = 15483
ELEMENT_SET_NO = 999
REV_AT_EPOCH   = 15317
BSTAR          = .76492107E-4
MEAN_MOTION_DOT = .204E-5
MEAN_MOTION_DDOT = 0

CCSDS_OMM_VERS = 2.0
CREATION_DATE  = 
ORIGINATOR     = 

OBJECT_NAME    = SL-12 R/B(2)
OBJECT_ID      = 1985-042D
CENTER_NAME    = EARTH
REF_FRAME      = TEME
TIME_SYSTEM    = UTC
MEAN_ELEMENT_THEORY = SGP/SGP4

EPOCH          = 2026-03-03T14:16:53.349024
MEAN_MOTION    = 14.21980541
ECCENTRICITY   = .0033521
INCLINATION    = 71.1064
RA_OF_ASC_NODE = 100.6061
ARG_OF_PERICENTER = 138.1204
MEAN_ANOMALY   = 30.3058

EPHEMERIS_TYPE = 0
CLASSIFICATION_TYPE = U
NORAD_CAT_ID   = 15772
ELEMENT_SET_NO = 999
REV_AT_EPOCH   = 11352
BSTAR          = .10122E-3
MEAN_MOTION_DOT = .177E-5
MEAN_MOTION_DDOT = 0

CCSDS_OMM_VERS = 2.0
CREATION_DATE  = 
ORIGINATOR     = 

OBJECT_NAME    = SL-14 R/B
OBJECT_ID      = 1985-069B
CENTER_NAME    = EARTH
REF_FRAME      = TEME
TIME_SYSTEM    = UTC
MEAN_ELEMENT_THEORY = SGP/SGP4

EPOCH          = 2026-03-03T19:42:43.462368
MEAN_MOTION    = 14.86424880
ECCENTRICITY   = .00179588
INCLINATION    = 82.5272
RA_OF_ASC_NODE = 30.4506
ARG_OF_PERICENTER = 207.6581
MEAN_ANOMALY   = 152.3682

EPHEMERIS_TYPE = 0
CLASSIFICATION_TYPE = U
NORAD_CAT_ID   = 15945
ELEMENT_SET_NO = 999
REV_AT_EPOCH   = 17196
BSTAR          = .78224122E-4
MEAN_MOTION_DOT = .716E-5
MEAN_MOTION_DDOT = 0

CCSDS_OMM_VERS = 2.0
CREATION_DATE  = 
ORIGINATOR     = 

OBJECT_NAME    = SL-16 R/B
OBJECT_ID      = 1985-097B
CENTER_NAME    = EARTH
REF_FRAME      = TEME
TIME_SYSTEM    = UTC
MEAN_ELEMENT_THEORY = SGP/SGP4

EPOCH          = 2026-03-03T17:05:06.504576
MEAN_MOTION    = 14.16599704
ECCENTRICITY   = .00099571
INCLINATION    = 71.0037
RA_OF_ASC_NODE = 153.1385
ARG_OF_PERICENTER = 266.8264
MEAN_ANOMALY   = 204.2668

EPHEMERIS_TYPE = 0
CLASSIFICATION_TYPE = U
NORAD_CAT_ID   = 16182
ELEMENT_SET_NO = 999
REV_AT_EPOCH   = 8638
BSTAR          = .19393807E-4
MEAN_MOTION_DOT = -.9E-7
MEAN_MOTION_DDOT = 0

CCSDS_OMM_VERS = 2.0
CREATION_DATE  = 
ORIGINATOR     = 

OBJECT_NAME    = SL-14 R/B
OBJECT_ID      = 1986-006B
CENTER_NAME    = EARTH
REF_FRAME      = TEME
TIME_SYSTEM    = UTC
MEAN_ELEMENT_THEORY = SGP/SGP4

EPOCH          = 2026-03-03T15:58:04.213056
MEAN_MOTION    = 14.86805690
ECCENTRICITY   = .00751857
INCLINATION    = 82.5234
RA_OF_ASC_NODE = 265.4087
ARG_OF_PERICENTER = 293.1762
MEAN_ANOMALY   = 66.1546

EPHEMERIS_TYPE = 0
CLASSIFICATION_TYPE = U
NORAD_CAT_ID   = 16496
ELEMENT_SET_NO = 999
REV_AT_EPOCH   = 14831
BSTAR          = .81026029E-4
MEAN_MOTION_DOT = .785E-5
MEAN_MOTION_DDOT = 0

CCSDS_OMM_VERS = 2.0
CREATION_DATE  = 
ORIGINATOR     = 

OBJECT_NAME    = COSMOS 1743
OBJECT_ID      = 1986-034A
CENTER_NAME    = EARTH
REF_FRAME      = TEME
TIME_SYSTEM    = UTC
MEAN_ELEMENT_THEORY = SGP/SGP4

EPOCH          = 2026-03-03T11:27:28.661184
MEAN_MOTION    = 15.58030499
ECCENTRICITY   = .00022538
INCLINATION    = 82.5291
RA_OF_ASC_NODE = 80.3487
ARG_OF_PERICENTER = 335.7563
MEAN_ANOMALY   = 24.3586

EPHEMERIS_TYPE = 0
CLASSIFICATION_TYPE = U
NORAD_CAT_ID   = 16719
ELEMENT_SET_NO = 999
REV_AT_EPOCH   = 17928
BSTAR          = .4711321E-3
MEAN_MOTION_DOT = .35452E-3
MEAN_MOTION_DDOT = 0

